     3.02           N: GNSS NAV DATA    C: BEIDOU           RINEX VERSION / TYPE
Spider v7.5.1.8670  SMO                 20231005 140415 UTC PGM / RUN BY / DATE
BDSA   4.8429D-08  3.3528D-07 -3.6955D-06  7.3910D-06       IONOSPHERIC CORR
BDSB   1.0650D+05  8.6835D+05 -8.1265D+06  8.3231D+06       IONOSPHERIC CORR
BDUT -2.7939677238D-09 9.769962617D-15 395945  926          TIME SYSTEM CORR
     4     4   829     6                                    LEAP SECONDS
                                                            END OF HEADER
C38 2023 10 05 11 00 00 1.091799931601D-04 2.389199948993D-12 0.000000000000D+00
     1.000000000000D+00-3.816875000000D+02 8.607501378322D-10 1.018869532851D+00
    -1.269346103072D-05 2.362414146774D-03 4.868023097515D-06 6.493426355362D+03
     3.852000000000D+05 1.951120793819D-07 6.706965236252D-01-1.192092895508D-07
     9.995549385153D-01 9.831250000000D+01-2.922938986793D+00-1.959010065278D-09
     1.592923432048D-10                    9.260000000000D+02                   
     2.000000000000D+00 0.000000000000D+00 2.599999993080D-09 2.599999993080D-09
     3.857400000000D+05 1.000000000000D+00                                      
C39 2023 10 05 13 00 00-5.058944225311D-06-2.424727085781D-13 0.000000000000D+00
     1.000000000000D+00-6.923437500000D+01 1.350056288985D-09-5.769310804552D-01
    -2.665445208549D-06 3.256695345044D-03 1.139193773270D-05 6.493559299469D+03
     3.924000000000D+05-5.122274160385D-08 2.758889958841D+00-2.109445631504D-07
     9.631692766207D-01-1.042812500000D+02-2.902563844143D+00-1.742929689463D-09
     1.821504405641D-11                    9.260000000000D+02                   
     2.000000000000D+00 0.000000000000D+00 6.100000060627D-09 6.100000060627D-09
     3.924000000000D+05 1.000000000000D+00                                      
C40 2023 10 05 13 00 00-3.897666465491D-05-1.417532757841D-12 0.000000000000D+00
     1.000000000000D+00 4.500468750000D+02 8.339632873167D-10-2.630127360527D+00
     1.497985795140D-05 3.507488640025D-03 7.884111255407D-06 6.493425638199D+03
     3.924000000000D+05-4.656612873077D-09-1.361736459207D+00 1.718290150166D-07
     9.851766540249D-01 1.023437500000D+01-2.997551900617D+00-1.951152794888D-09
    -3.785871963147D-11                    9.260000000000D+02                   
     2.000000000000D+00 0.000000000000D+00 8.000000106811D-10 8.000000106811D-10
     3.924000000000D+05 1.000000000000D+00                                      
C41 2023 10 05 10 00 00-8.744406513870D-04 2.063238468963D-12 0.000000000000D+00
     1.000000000000D+00-6.507812500000D+01 3.694439643098D-09-8.921030087226D-01
    -3.206077963114D-06 1.291260006838D-03 7.379800081253D-06 5.282626691818D+03
     3.816000000000D+05 2.281740307808D-08 1.503494758614D+00-4.284083843231D-08
     9.722664063641D-01 2.167968750000D+02-1.486562156252D+00-6.684206965701D-09
     1.428630963529D-10                    9.260000000000D+02                   
     2.000000000000D+00 0.000000000000D+00-2.390000020114D-08-2.390000020114D-08
     3.816000000000D+05 1.000000000000D+00                                      
C42 2023 10 05 05 00 00-5.298411706463D-04 9.670486633695D-12 0.000000000000D+00
     1.000000000000D+00-5.153125000000D+01 3.502288681290D-09-2.088602012143D+00
    -2.615619450808D-06 1.079068752006D-03 7.671769708395D-06 5.282627260208D+03
     3.636000000000D+05 3.539025783539D-08 1.504186198067D+00 1.862645149231D-08
     9.722951175943D-01 2.132187500000D+02-1.160928014272D+00-6.628133153441D-09
     2.314382158142D-10                    9.260000000000D+02                   
     2.000000000000D+00 0.000000000000D+00-3.230000089616D-08-3.230000089616D-08
     3.636000000000D+05 1.000000000000D+00                                      
C43 2023 10 05 11 00 00 4.266016185284D-05 1.651123682223D-12 0.000000000000D+00
     1.000000000000D+00 4.951562500000D+01 3.987666197247D-09 4.002517356799D-01
     2.234708517790D-06 3.368302714080D-04 2.969522029161D-06 5.282622039795D+03
     3.852000000000D+05-1.722946763039D-08-6.148791066743D-01-1.676380634308D-08
     9.548902004268D-01 3.012343750000D+02 6.104140802766D-01-7.118510669812D-09
     8.607501517099D-11                    9.260000000000D+02                   
     2.000000000000D+00 0.000000000000D+00-3.300000050999D-09-3.300000050999D-09
     3.852000000000D+05 1.000000000000D+00                                      
C44 2023 10 05 01 00 00 2.518338151276D-04 1.179234487836D-11 0.000000000000D+00
     1.000000000000D+00 1.165625000000D+01 4.098742234504D-09-2.912658256845D+00
     6.495974957943D-07 5.556185496971D-04 1.864042133093D-06 5.282621688843D+03
     3.492000000000D+05 5.401670932770D-08-6.142982301813D-01-1.722946763039D-08
     9.553498375840D-01 3.197656250000D+02 5.748274993469D-01-7.140654734172D-09
    -1.867934973365D-10                    9.260000000000D+02                   
     2.000000000000D+00 0.000000000000D+00-1.600000021362D-09-1.600000021362D-09
     3.492000000000D+05 1.000000000000D+00                                      
C45 2023 10 04 19 00 00-3.256218042225D-05-3.923084079815D-12 0.000000000000D+00
     1.000000000000D+00 4.206250000000D+01 4.092670646827D-09-2.257021461043D+00
     2.047978341579D-06 5.103944567963D-04 9.282957762480D-06 5.282621978760D+03
     3.276000000000D+05 3.678724169731D-08-2.678551081250D+00-1.117587089539D-07
     9.511775454827D-01 1.662656250000D+02-6.978181997290D-02-6.763138937771D-09
    -4.639479078694D-10                    9.260000000000D+02                   
     2.000000000000D+00 0.000000000000D+00 1.889999978744D-08 1.889999978744D-08
     3.276000000000D+05 1.000000000000D+00                                      
C46 2023 10 05 13 00 00-8.944282308221D-05-2.944311461306D-12 0.000000000000D+00
     1.000000000000D+00 2.806250000000D+01 3.959450545210D-09 1.669668073817D+00
     1.532491296530D-06 8.296682499349D-04 8.512753993273D-06 5.282620258331D+03
     3.924000000000D+05-4.889443516731D-08-2.678451124446D+00-5.727633833885D-08
     9.511884310561D-01 1.879218750000D+02 3.372993015269D-02-6.699207411032D-09
    -3.560862715801D-10                    9.260000000000D+02                   
     2.000000000000D+00 0.000000000000D+00 1.829999973779D-08 1.829999973779D-08
     3.924000000000D+05 1.000000000000D+00                                      
C56 2023 10 04 07 00 00 6.150292465463D-04 2.140865262845D-11 0.000000000000D+00
     3.100000000000D+01 2.236093750000D+02 2.030798862407D-09-4.883367791298D-01
     6.893184036016D-06 4.641683772206D-03-2.985820174217D-06 6.493828577042D+03
     2.844000000000D+05-3.678724169731D-08 6.373336103602D-01-1.932494342327D-07
     8.998330298175D-01 3.084375000000D+02-2.934558216563D+00-2.780830010707D-09
    -4.321608695901D-11                    9.260000000000D+02                   
     2.000000000000D+00 1.000000000000D+00-3.010000071413D-08 0.000000000000D+00
     2.319002000000D+04 2.500000000000D+01                                      
C57 2023 10 03 20 00 00 1.298927236348D-04 3.801403636317D-12 0.000000000000D+00
     2.900000000000D+01 1.277968750000D+02 3.586577923542D-09 3.034701944523D+00
     6.191432476044D-06 5.848238943145D-04 2.180226147175D-06 5.282625308990D+03
     2.448000000000D+05-3.166496753693D-08-2.251441212695D+00 4.004687070847D-08
     9.763719645314D-01 3.246406250000D+02-5.644390679071D-01-6.963861487463D-09
     1.882221323246D-10                    9.260000000000D+02                   
     2.000000000000D+00 1.000000000000D+00-1.029999996405D-08 0.000000000000D+00
     4.698000000000D+04 2.900000000000D+01                                      
C58 2023 10 04 05 00 00-9.765625000000D-04-1.879865152432D-10 0.000000000000D+00
     3.100000000000D+01-4.206250000000D+01 3.190490094340D-09 9.737284993576D-02
    -2.037733793259D-06 6.833153311163D-04 9.928829967976D-06 5.282618175507D+03
     2.772000000000D+05-4.703179001808D-08 1.971576625017D+00 5.122274160385D-08
     9.749307371385D-01 1.670312500000D+02 9.398374360931D-01-6.581345690648D-09
    -2.007226468370D-10                    9.260000000000D+02                   
     2.000000000000D+00 1.000000000000D+00-8.999999856485D-09 0.000000000000D+00
     3.009900000000D+05 2.500000000000D+01                                      
C59 2023 10 05 13 00 00 6.321351975203D-08-1.829647544582D-13 0.000000000000D+00
     1.000000000000D+00-1.606562500000D+02-2.990481640097D-09-2.500596758018D+00
    -5.264766514301D-06 2.070234622806D-04 1.366250216961D-06 6.493500329971D+03
     3.924000000000D+05-3.161840140820D-07 6.530470621457D-01 1.145526766777D-07
     8.966374856932D-02-3.610937500000D+01 1.490631586195D+00 4.185531476963D-09
     7.061008444609D-10                    9.260000000000D+02                   
     2.000000000000D+00 0.000000000000D+00 4.170000167392D-08 4.170000167392D-08
     3.924004000000D+05 1.000000000000D+00                                      
C60 2023 10 05 09 00 00-5.295732989907D-07 1.483257960899D-13 0.000000000000D+00
     1.000000000000D+00-2.578125000000D+01-2.916550112531D-09 4.664141544217D-01
    -6.915070116520D-07 3.301214892417D-04-6.814487278461D-06 6.493410341263D+03
     3.780000000000D+05-9.033828973770D-08-4.704335481770D-01-3.026798367500D-08
     1.140015866580D-01 2.038906250000D+02-2.449677076689D+00 3.990166419499D-09
    -1.142904781232D-11                    9.260000000000D+02                   
     2.000000000000D+00 0.000000000000D+00 4.760000038573D-08 4.760000038573D-08
     3.780304000000D+05 1.000000000000D+00                                      
